{
  "norad_id": 66243,
  "name": "STARLINK-35495",
  "history": [
    {
      "epoch": "2026-03-28T18:45:37.672992",
      "apogee_km": 475.8105145163363,
      "perigee_km": 474.5711587103624,
      "latitude_deg": 38.07661823792328,
      "longitude_deg": 159.3418588801287,
      "semi_major_axis_km": 6853.327836613349,
      "eccentricity": 9.042e-05,
      "inclination_deg": 53.1577,
      "raan_deg": 194.927,
      "arg_perigee_deg": 76.8454,
      "mean_anomaly_deg": 283.2648,
      "mean_motion_rev_day": 15.30208116
    }
  ]
}